[
    {
        "CCSDS_OMM_VERS": "3.0",
        "COMMENT": "GENERATED VIA SPACE-TRACK.ORG API",
        "CREATION_DATE": "2025-04-12T22:09:39",
        "ORIGINATOR": "18 SPCS",
        "OBJECT_NAME": "COSMOS 2478 (GLONASS)",
        "OBJECT_ID": "2011-071A",
        "CENTER_NAME": "EARTH",
        "REF_FRAME": "TEME",
        "TIME_SYSTEM": "UTC",
        "MEAN_ELEMENT_THEORY": "SGP4",
        "EPOCH": "2025-04-12T05:36:38.441664",
        "MEAN_MOTION": "2.13015642",
        "ECCENTRICITY": "0.00161130",
        "INCLINATION": "65.6980",
        "RA_OF_ASC_NODE": "329.3755",
        "ARG_OF_PERICENTER": "222.2427",
        "MEAN_ANOMALY": "317.8563",
        "EPHEMERIS_TYPE": "0",
        "CLASSIFICATION_TYPE": "U",
        "NORAD_CAT_ID": "37938",
        "ELEMENT_SET_NO": "999",
        "REV_AT_EPOCH": "10396",
        "BSTAR": "0.00000000000000",
        "MEAN_MOTION_DOT": "-0.00000047",
        "MEAN_MOTION_DDOT": "0.0000000000000",
        "SEMIMAJOR_AXIS": "25514.918",
        "PERIOD": "676.007",
        "APOAPSIS": "19177.895",
        "PERIAPSIS": "19095.671",
        "OBJECT_TYPE": "PAYLOAD",
        "RCS_SIZE": "LARGE",
        "COUNTRY_CODE": "CIS",
        "LAUNCH_DATE": "2011-11-28",
        "SITE": "PKMTR",
        "DECAY_DATE": null,
        "FILE": "4699941",
        "GP_ID": "285444054",
        "TLE_LINE0": "0 COSMOS 2478 (GLONASS)",
        "TLE_LINE1": "1 37938U 11071A   25102.23377826 -.00000047  00000-0  00000-0 0  9990",
        "TLE_LINE2": "2 37938  65.6980 329.3755 0016113 222.2427 317.8563  2.13015642103969"
    }
]